satname,norad_id,inclination_deg,eccentricity,mean_motion_rev_per_day,perigee_km,apogee_km,l1,l2
STARLINK-1234,45190,53.0338,0.0003168,15.86302751,310.5393732208904,314.77866157751487,1 45190U 20012N   26197.99260928  .00101669  00000+0  39642-3 0  9993,2 45190  53.0338  43.5106 0003168 261.5182  98.5483 15.86302751356228
STARLINK-1269,45197,53.1551,0.0003436,15.38151855,449.2279205718505,453.92129838988694,1 45197U 20012V   26198.26931231  .00024884  00000+0  66082-3 0  9994,2 45197  53.1551 154.8641 0003436  49.3923 310.7380 15.38151855354795
STARLINK-1154,45198,53.0401,0.0004156,15.66836972,365.1571388012926,370.7644953068266,1 45198U 20012W   26198.11645834  .00030365  00000+0  28604-3 0  9999,2 45198  53.0401 101.8431 0004156  96.4355 263.7134 15.66836972355460
STARLINK-1199,45201,53.154,0.0005761,15.38132101,447.6984541181928,455.56771520974235,1 45201U 20012Z   26198.24093361  .00021820  00000+0  58118-3 0  9999,2 45201  53.1540 139.2722 0005761  51.3190 308.8328 15.38132101355039
STARLINK-1209,45206,53.0345,0.0001249,15.75045069,343.6632776648512,345.342593120713,1 45206U 20012AE  26198.63674425  .00045752  00000+0  30352-3 0  9993,2 45206  53.0345  57.8214 0001249 252.7788 107.3094 15.75045069355235
STARLINK-1231,45212,53.0393,0.0002978,15.30270773,472.9628968235338,477.044627461466,1 45212U 20012AL  26198.54984473  .00019617  00000+0  67116-3 0  9996,2 45212  53.0393 134.7330 0002978 108.6988 251.4335 15.30270773355052
STARLINK-1271,45217,53.1555,0.0005226,15.38319128,447.5105547152989,454.6484518045063,1 45217U 20012AR  26198.10374628  .00029701  00000+0  78182-3 0  9998,2 45217  53.1555 139.9875 0005226  59.0954 301.0564 15.38319128355018
STARLINK-1191,45222,53.1529,0.0002746,15.42840303,435.8596782660361,439.6029531450213,1 45222U 20012AW  26198.04161436  .00028874  00000+0  65538-3 0  9999,2 45222  53.1529 112.1014 0002746  42.7917 317.3303 15.42840303355408
STARLINK-1212,45223,53.0381,0.0001246,15.73696067,347.50611646311063,349.18235558712786,1 45223U 20012AX  26198.65908987  .00044083  00000+0  31017-3 0  9992,2 45223  53.0381  73.3818 0001246 202.2504 157.8460 15.73696067355976
STARLINK-1215,45225,53.1551,0.0005274,15.38447585,447.09781994361856,454.3008765237346,1 45225U 20012AZ  26198.48949400  .00024250  00000+0  63802-3 0  9991,2 45225  53.1551 112.4020 0005274  63.7843 296.3703 15.38447585355394
STARLINK-1221,45227,53.0645,0.0002891,15.46596824,424.7228827316576,428.6574337945658,1 45227U 20012BB  26197.97180366  .00010624  00000+0  21824-3 0  9992,2 45227  53.0645  14.9274 0002891  69.4520 290.6797 15.46596824356686
STARLINK-1222,45228,53.0518,0.0003425,15.57814324,391.66460408177954,396.3035070048263,1 45228U 20012BC  26198.05363158  .00022784  00000+0  30638-3 0  9998,2 45228  53.0518  78.7566 0003425 112.1185 248.0190 15.57814324355734
STARLINK-1226,45229,53.1534,0.0004892,15.48322383,418.30692010189887,424.95981542972095,1 45229U 20012BD  26198.73120936  .00034098  00000+0  63993-3 0  9990,2 45229  53.1534 104.6445 0004892  65.6781 294.4738 15.48322383355464
STARLINK-1227,45230,53.151,0.0004557,15.48381043,418.3630512702548,424.5602054601468,1 45230U 20012BE  26198.73866514  .00032467  00000+0  60863-3 0  9992,2 45230  53.1510 104.6826 0004557  57.6767 302.4682 15.48381043355585
STARLINK-1246,45235,53.1542,0.0005124,15.38417157,447.29025004525556,454.28853381170484,1 45235U 20012BK  26198.27249360  .00024403  00000+0  64262-3 0  9998,2 45235  53.1542 154.4397 0005124  23.9695 336.1547 15.38417157354856
STARLINK-1270,45237,53.0378,8.69e-05,15.72602196,350.8782771985834,352.04788169238964,1 45237U 20012BM  26198.66041550  .00053613  00000+0  39379-3 0  9990,2 45237  53.0378  75.3436 0000869 215.9108 144.1852 15.72602196355946
STARLINK-1279,45360,53.0307,0.0003757,15.87841001,305.82499042362815,310.84920706142384,1 45360U 20019A   26198.63025571  .00107218  00000+0  38723-3 0  9999,2 45360  53.0307 174.6657 0003757  54.1988 305.9385 15.87841001351109
STARLINK-1301,45361,53.0305,0.0005589,15.89507464,299.9283586399815,307.39727447492896,1 45361U 20019B   26198.66913916  .00110403  00000+0  36647-3 0  9995,2 45361  53.0305 176.3304 0005589  55.2829 304.8722 15.89507464351092
STARLINK-1262,45366,53.1511,0.0002612,15.37394303,452.0334817239409,455.60249500986265,1 45366U 20019G   26198.65963355  .00023735  00000+0  64654-3 0  9991,2 45366  53.1511 279.3524 0002612 304.5797  55.4960 15.37394303349687
STARLINK-1273,45367,53.0398,0.000304,15.62793598,377.53745441794035,381.64615353075715,1 45367U 20019H   26198.60623750  .00046877  00000+0  51397-3 0  9991,2 45367  53.0398 247.9248 0003040 358.4097   1.6906 15.62793598350098
STARLINK-1277,45369,53.0378,0.0003655,15.71110095,353.26196420715314,358.18441600612095,1 45369U 20019K   26198.40941640  .00035554  00000+0  28020-3 0  9999,2 45369  53.0378 240.4627 0003655  27.6719 332.4491 15.71110095350184
STARLINK-1281,45370,53.1547,0.0001452,15.38205226,450.4249773605243,452.4082797342544,1 45370U 20019L   26198.58483169  .00022318  00000+0  59297-3 0  9991,2 45370  53.1547 279.1105 0001452 297.1917  62.8939 15.38205226349680
STARLINK-1300,45374,53.1552,0.0002212,15.38896605,447.8606914111333,450.8811809220924,1 45374U 20019Q   26198.58167547  .00023967  00000+0  62176-3 0  9995,2 45374  53.1552 278.8693 0002212 310.0574  50.0236 15.38896605349683
STARLINK-1302,45375,53.042,0.0001017,15.7134545,354.36601294121556,355.73554333528955,1 45375U 20019R   26198.50563328  .00031992  00000+0  25029-3 0  9998,2 45375  53.0420 235.7759 0001017  54.0387 306.0724 15.71345450350256
STARLINK-1304,45376,53.0385,0.0001496,15.66880203,366.8275333624006,368.84592870272627,1 45376U 20019S   26198.10297415  .00027261  00000+0  25705-3 0  9991,2 45376  53.0385 240.2737 0001496 347.8913  12.2066 15.66880203350151
STARLINK-1305,45377,53.0354,0.0007224,15.76751515,334.7987258709072,344.5045869216674,1 45377U 20019T   26198.46750338  .00046504  00000+0  28586-3 0  9990,2 45377  53.0354 214.3903 0007224  27.9508 332.1898 15.76751515350551
STARLINK-1319,45379,53.0327,0.0004115,15.85024319,313.5015183415926,319.01100399553434,1 45379U 20019V   26198.57485375  .00079468  00000+0  33103-3 0  9996,2 45379  53.0327 203.4822 0004115  41.4023 318.7311 15.85024319350714
STARLINK-1266,45383,53.0418,0.0004755,15.69463646,357.227624010362,363.63600295198285,1 45383U 20019Z   26198.50229681  .00027828  00000+0  23605-3 0  9999,2 45383  53.0418 222.5478 0004755  23.2216 336.9014 15.69463646350434
STARLINK-1267,45384,53.0402,0.0003006,15.74221838,344.8249138556321,348.8679739020927,1 45384U 20019AA  26198.52868341  .00041566  00000+0  28622-3 0  9993,2 45384  53.0402 212.8384 0003006  46.6462 313.4806 15.74221838350571
STARLINK-1272,45386,53.0366,0.0003056,15.79512251,329.7710608007683,333.87218751185173,1 45386U 20019AC  26198.68735374  .00059802  00000+0  32381-3 0  9990,2 45386  53.0366 189.4614 0003056  62.9209 297.2123 15.79512251350918
STARLINK-1274,45387,53.0155,0.0005938,15.69615643,355.99567372512684,363.99788139936027,1 45387U 20019AD  26197.99579791  .00086991  00000+0  71752-3 0  9997,2 45387  53.0155 194.7363 0005938 343.7290  16.3535 15.69615643350775
STARLINK-1280,45388,53.0291,0.0006106,15.93534625,288.32759808695755,296.47365863871346,1 45388U 20019AE  26198.75003471  .00153580  20125-4  42533-3 0  9999,2 45388  53.0291 193.0270 0006106  45.9725  27.8950 15.93534625  5994
STARLINK-1283,45389,53.0327,0.000444,15.76743617,336.69138144848057,342.6567976960214,1 45389U 20019AF  26198.40975438  .00047893  00000+0  29461-3 0  9992,2 45389  53.0327 190.1847 0004440  20.9255 339.1946 15.76743617350882
STARLINK-1284,45390,53.0384,0.0004273,15.74593302,342.91560343479887,348.6618703695549,1 45390U 20019AG  26197.33037119  .00040920  00000+0  27733-3 0  9994,2 45390  53.0384 219.9827 0004273  70.4864 289.6616 15.74593302350363
STARLINK-1297,45395,53.0384,0.0003856,15.77901464,333.79826226346177,338.97650346752835,1 45395U 20019AM  26198.45047598  .00024033  00000+0  14279-3 0  9993,2 45395  53.0384 213.0136 0003856  41.0738 319.0571 15.77901464349749
STARLINK-1307,45397,53.0499,0.0002738,15.59266193,387.9265611004457,391.63267223973435,1 45397U 20019AP  26198.39287723  .00020282  00000+0  25908-3 0  9997,2 45397  53.0499 223.8272 0002738  11.1315 348.9757 15.59266193350231
STARLINK-1255,45399,53.0311,0.0001604,15.69371386,359.614999497132,361.7768170941117,1 45399U 20019AR  26198.69929558  .00030404  00000+0  25843-3 0  9996,2 45399  53.0311 187.3176 0001604 357.7856   2.3153 15.69371386350753
STARLINK-1260,45404,53.1535,0.000125,15.41435754,441.01857757367,442.72357959331566,1 45404U 20019AW  26198.15706055  .00021763  00000+0  52047-3 0  9993,2 45404  53.1535 242.9437 0001250 301.0965  58.9917 15.41435754349862
STARLINK-1263,45405,53.1544,0.0003465,15.38473839,448.25549390848755,452.9878236590248,1 45405U 20019AX  26198.59285501  .00020280  00000+0  53517-3 0  9996,2 45405  53.1544 242.9849 0003465 325.2892  34.7885 15.38473839349900
STARLINK-1265,45406,53.1526,0.0002835,15.41947151,438.4300165079403,442.2961060426842,1 45406U 20019AY  26198.52821139  .00024061  00000+0  56457-3 0  9990,2 45406  53.1526 241.0640 0002835   1.1945 358.9067 15.41947151349921
STARLINK-1278,45408,53.0356,0.000312,15.79165839,330.7090569037209,334.89668338269075,1 45408U 20019BA  26198.51291831  .00052934  00000+0  29180-3 0  9994,2 45408  53.0356 211.3083 0003120  47.5953 312.5331 15.79165839350316
STARLINK-1296,45412,53.1526,0.0001717,15.420855,438.78457189483925,441.125904769483,1 45412U 20019BE  26198.49840666  .00023103  00000+0  54008-3 0  9995,2 45412  53.1526 240.8450 0001717 344.4222  15.6731 15.42085500349920
STARLINK-1309,45414,53.0564,0.0003685,15.7727323,335.69525259481,340.64517100990906,1 45414U 20019BG  26198.31536742  .00050147  00000+0  30113-3 0  9994,2 45414  53.0564 206.7461 0003685  49.7418 310.3923 15.77273230350347
